{
  "type": "FeatureCollection",
  "crs": {
    "type": "name",
    "properties": {
      "name": "EPSG:4326"
    }
  },
  "features": [
    {
      "type": "Feature",
      "geometry": {
        "coordinates": [
          [
            [
              135.06993497287712,
              48.479298338246444
            ],
            [
              135.07018575941996,
              48.47906740336931
            ],
            [
              135.07148931300128,
              48.47915210933161
            ],
            [
              135.0718406823821,
              48.47935629470746
            ],
            [
              135.07059613739915,
              48.48020869281905
            ],
            [
              135.07015089070282,
              48.48023811633618
            ],
            [
              135.07039094840962,
              48.4796781747634
            ],
            [
              135.06993497287712,
              48.479298338246444
            ]
          ]
        ],
        "type": "Polygon"
      },
      "properties": {
        "description": "\u0417\u043e\u043d\u0430 \u0440\u0430\u0431\u043e\u0442\u044b",
        "fill": "#ed4543",
        "fill-opacity": "0.6",
        "stroke": "#ed4543",
        "stroke-width": "5",
        "stroke-opacity": "0.9",
        "_qgis_class_val": "default",
        "_qgis_style": {
          "color": "#e41a1c",
          "fillColor": "#000000",
          "weight": 1.0,
          "opacity": 1.0,
          "fillOpacity": 0.0,
          "radius": 6,
          "dashArray": null
        }
      }
    }
  ]
}