{
  "type": "FeatureCollection",
  "crs": {
    "type": "name",
    "properties": {
      "name": "EPSG:4326"
    }
  },
  "features": [
    {
      "type": "Feature",
      "geometry": {
        "coordinates": [
          [
            [
              135.0703162356841,
              48.48022694655369
            ],
            [
              135.07033746205056,
              48.480152441260664
            ],
            [
              135.07038089987296,
              48.48005088772582
            ],
            [
              135.07042703380208,
              48.48000942235641
            ],
            [
              135.07063158253385,
              48.47985705916274
            ],
            [
              135.07070585570395,
              48.47979712683458
            ],
            [
              135.07073101566928,
              48.47975202476177
            ],
            [
              135.07073803259308,
              48.47972659299013
            ],
            [
              135.0707408050284,
              48.47967163347065
            ],
            [
              135.0707355034423,
              48.47962785972982
            ],
            [
              135.07069587602788,
              48.479560025606105
            ],
            [
              135.0706703379343,
              48.47953083073978
            ],
            [
              135.07061312605595,
              48.479483160142124
            ],
            [
              135.0705748962161,
              48.479459924137515
            ],
            [
              135.07002412462967,
              48.47921641768206
            ]
          ]
        ],
        "type": "MultiLineString"
      },
      "properties": {
        "name": "\u043f\u0440\u0430\u0432\u0430\u044f \u043f\u043e\u043b\u043e\u0441\u0430 \u0433\u043b\u0430\u0432\u043d\u043e\u0439 \u0434\u043e\u0440\u043e\u0433\u0438",
        "\u0442\u0438\u043f_\u043c\u0430\u043d\u0435\u0432\u0440\u0430": "NULL",
        "\u043f\u0440\u0438\u043e\u0440\u0438\u0442\u0435\u0442_\u0434\u0432\u0438\u0436\u0435\u043d\u0438\u044f": "True",
        "_qgis_class_val": "true",
        "_qgis_style": {
          "color": "#ffe220",
          "fillColor": "#3388ff",
          "weight": 1.7388,
          "opacity": 1.0,
          "fillOpacity": 0.0,
          "radius": 6,
          "dashArray": null
        }
      }
    },
    {
      "type": "Feature",
      "geometry": {
        "coordinates": [
          [
            [
              135.07039008292082,
              48.48022223258303
            ],
            [
              135.07042083537206,
              48.48013546243893
            ],
            [
              135.07047111762446,
              48.48005440288342
            ],
            [
              135.07055253729484,
              48.47998313394412
            ],
            [
              135.07070104120427,
              48.479867175567
            ],
            [
              135.07076819549417,
              48.47980755222477
            ],
            [
              135.07080448589232,
              48.479751152424754
            ]
          ],
          [
            [
              135.07080448589232,
              48.479751152424754
            ],
            [
              135.07080995103166,
              48.47974265891189
            ],
            [
              135.07081800019952,
              48.47968538970411
            ],
            [
              135.07081823274743,
              48.47967943490151
            ],
            [
              135.07081841995296,
              48.47967348009822
            ],
            [
              135.07081850495047,
              48.479667525294225
            ],
            [
              135.07081752356365,
              48.479661570489526
            ],
            [
              135.07081651229066,
              48.47965561568414
            ],
            [
              135.07080196293842,
              48.479603816936574
            ],
            [
              135.07078579376997,
              48.479576731120765
            ],
            [
              135.07073661263766,
              48.47951796452865
            ],
            [
              135.07071370315794,
              48.47949844743739
            ],
            [
              135.0706491984471,
              48.47945672377427
            ],
            [
              135.07005199463856,
              48.4791906867604
            ]
          ]
        ],
        "type": "MultiLineString"
      },
      "properties": {
        "name": "\u043b\u0435\u0432\u0430\u044f \u043f\u043e\u043b\u043e\u0441\u0430 \u0433\u043b\u0430\u0432\u043d\u043e\u0439 \u0434\u043e\u0440\u043e\u0433\u0438",
        "\u0442\u0438\u043f_\u043c\u0430\u043d\u0435\u0432\u0440\u0430": "NULL",
        "\u043f\u0440\u0438\u043e\u0440\u0438\u0442\u0435\u0442_\u0434\u0432\u0438\u0436\u0435\u043d\u0438\u044f": "True",
        "_qgis_class_val": "true",
        "_qgis_style": {
          "color": "#ffe220",
          "fillColor": "#3388ff",
          "weight": 1.7388,
          "opacity": 1.0,
          "fillOpacity": 0.0,
          "radius": 6,
          "dashArray": null
        }
      }
    },
    {
      "type": "Feature",
      "geometry": {
        "coordinates": [
          [
            [
              135.07010392399562,
              48.47914257740151
            ],
            [
              135.0705264860204,
              48.47932779593145
            ],
            [
              135.07066409603053,
              48.47939473575381
            ],
            [
              135.0707574258237,
              48.47944628724865
            ],
            [
              135.07082118398975,
              48.47950063502657
            ],
            [
              135.07084853250595,
              48.47953249764134
            ],
            [
              135.07086910641698,
              48.47956554195749
            ],
            [
              135.0708915213942,
              48.479625715361536
            ],
            [
              135.07089180236002,
              48.47962933333314
            ],
            [
              135.07089187241215,
              48.47963528814162
            ],
            [
              135.07089194246515,
              48.4796412429494
            ],
            [
              135.0708920125191,
              48.47964719775647
            ],
            [
              135.07089208257395,
              48.47965315256286
            ],
            [
              135.07089215262974,
              48.47965910736854
            ],
            [
              135.07089222268644,
              48.47966506217351
            ],
            [
              135.07089229274408,
              48.47967101697781
            ],
            [
              135.07089236280268,
              48.47967697178139
            ],
            [
              135.0708924328622,
              48.47968292658428
            ],
            [
              135.0708925029227,
              48.47968888138646
            ],
            [
              135.07089257298415,
              48.47969483618795
            ],
            [
              135.0708885284111,
              48.479718506408304
            ],
            [
              135.07087254741694,
              48.47976136533366
            ],
            [
              135.0708566938586,
              48.47978783627096
            ],
            [
              135.07082132130702,
              48.479826655800146
            ],
            [
              135.0707677138631,
              48.479872534042165
            ],
            [
              135.07067205361432,
              48.4799432322048
            ],
            [
              135.070531883312,
              48.480063350248315
            ],
            [
              135.0704859722271,
              48.480122231918926
            ],
            [
              135.0704611920622,
              48.480216962990376
            ]
          ]
        ],
        "type": "MultiLineString"
      },
      "properties": {
        "name": "\u043b\u0435\u0432\u0430\u044f \u043f\u043e\u043b\u043e\u0441\u0430 \u0433\u043b\u0430\u0432\u043d\u043e\u0439 \u0434\u043e\u0440\u043e\u0433\u0438",
        "\u0442\u0438\u043f_\u043c\u0430\u043d\u0435\u0432\u0440\u0430": "NULL",
        "\u043f\u0440\u0438\u043e\u0440\u0438\u0442\u0435\u0442_\u0434\u0432\u0438\u0436\u0435\u043d\u0438\u044f": "True",
        "_qgis_class_val": "true",
        "_qgis_style": {
          "color": "#ffe220",
          "fillColor": "#3388ff",
          "weight": 1.7388,
          "opacity": 1.0,
          "fillOpacity": 0.0,
          "radius": 6,
          "dashArray": null
        }
      }
    },
    {
      "type": "Feature",
      "geometry": {
        "coordinates": [
          [
            [
              135.07051530442374,
              48.48021409837425
            ],
            [
              135.07053420867197,
              48.48013694850972
            ],
            [
              135.07056928500978,
              48.48008771210755
            ],
            [
              135.0706611326407,
              48.48001182126765
            ],
            [
              135.0708116098081,
              48.47990112373798
            ],
            [
              135.0709139233636,
              48.479804860357035
            ],
            [
              135.07095595292748,
              48.47973983277131
            ],
            [
              135.07097505383587,
              48.47970304901008
            ],
            [
              135.0709792236115,
              48.47967294140188
            ],
            [
              135.0709736302395,
              48.479627478572176
            ]
          ],
          [
            [
              135.0709736302395,
              48.479627478572176
            ],
            [
              135.07097108268232,
              48.47960677205867
            ],
            [
              135.07094557140135,
              48.479548797631836
            ],
            [
              135.0709119888153,
              48.47950131607168
            ],
            [
              135.07087209150873,
              48.47946753723374
            ]
          ],
          [
            [
              135.07087209150873,
              48.47946753723374
            ],
            [
              135.07084041085125,
              48.47944071496104
            ],
            [
              135.07081392187848,
              48.47942435517432
            ],
            [
              135.07068997937805,
              48.479365522164706
            ],
            [
              135.07013029017264,
              48.47911829579815
            ]
          ]
        ],
        "type": "MultiLineString"
      },
      "properties": {
        "name": "\u043f\u0440\u0430\u0432\u0430\u044f \u043f\u043e\u043b\u043e\u0441\u0430 \u0433\u043b\u0430\u0432\u043d\u043e\u0439 \u0434\u043e\u0440\u043e\u0433\u0438",
        "\u0442\u0438\u043f_\u043c\u0430\u043d\u0435\u0432\u0440\u0430": "NULL",
        "\u043f\u0440\u0438\u043e\u0440\u0438\u0442\u0435\u0442_\u0434\u0432\u0438\u0436\u0435\u043d\u0438\u044f": "True",
        "_qgis_class_val": "true",
        "_qgis_style": {
          "color": "#ffe220",
          "fillColor": "#3388ff",
          "weight": 1.7388,
          "opacity": 1.0,
          "fillOpacity": 0.0,
          "radius": 6,
          "dashArray": null
        }
      }
    },
    {
      "type": "Feature",
      "geometry": {
        "coordinates": [
          [
            [
              135.0709736302395,
              48.479627478572176
            ],
            [
              135.0709736302395,
              48.479627478572176
            ]
          ],
          [
            [
              135.0709736302395,
              48.479627478572176
            ],
            [
              135.07103800606617,
              48.47962605611035
            ],
            [
              135.07114733852222,
              48.479552005522585
            ],
            [
              135.07160896475702,
              48.4792215627115
            ]
          ]
        ],
        "type": "MultiLineString"
      },
      "properties": {
        "name": "\u0432\u044a\u0435\u0437\u0434 \u043d\u0430 \u043f\u043e\u043b\u043e\u0441\u0443 \u0441 \u043f\u0440\u0438\u043e\u0440\u0438\u0442\u0435\u0442\u043e\u043c \u0434\u0432\u0438\u0436\u0435\u043d\u0438\u044f",
        "\u0442\u0438\u043f_\u043c\u0430\u043d\u0435\u0432\u0440\u0430": "\u0432\u044a\u0435\u0437\u0434",
        "\u043f\u0440\u0438\u043e\u0440\u0438\u0442\u0435\u0442_\u0434\u0432\u0438\u0436\u0435\u043d\u0438\u044f": "False",
        "_qgis_class_val": "false",
        "_qgis_style": {
          "color": "#f19328",
          "fillColor": "#3388ff",
          "weight": 1.7388,
          "opacity": 1.0,
          "fillOpacity": 0.0,
          "radius": 6,
          "dashArray": null
        }
      }
    },
    {
      "type": "Feature",
      "geometry": {
        "coordinates": [
          [
            [
              135.07087209150873,
              48.47946753723374
            ],
            [
              135.07087209150873,
              48.47946753723374
            ]
          ],
          [
            [
              135.07087209150873,
              48.47946753723374
            ],
            [
              135.0710516726232,
              48.47947598539184
            ],
            [
              135.07117051224935,
              48.479453927716
            ],
            [
              135.07127281966032,
              48.47939369785752
            ],
            [
              135.07156082201638,
              48.479194717839995
            ]
          ]
        ],
        "type": "MultiLineString"
      },
      "properties": {
        "name": "\u043f\u043e\u0432\u043e\u0440\u043e\u0442 \u043d\u0430\u043f\u0440\u0430\u0432\u043e",
        "\u0442\u0438\u043f_\u043c\u0430\u043d\u0435\u0432\u0440\u0430": "\u043f\u043e\u0432\u043e\u0440\u043e\u0442",
        "\u043f\u0440\u0438\u043e\u0440\u0438\u0442\u0435\u0442_\u0434\u0432\u0438\u0436\u0435\u043d\u0438\u044f": "True",
        "_qgis_class_val": "true",
        "_qgis_style": {
          "color": "#ffe220",
          "fillColor": "#3388ff",
          "weight": 1.7388,
          "opacity": 1.0,
          "fillOpacity": 0.0,
          "radius": 6,
          "dashArray": null
        }
      }
    },
    {
      "type": "Feature",
      "geometry": {
        "coordinates": [
          [
            [
              135.07087559609857,
              48.47975460264798
            ],
            [
              135.0708421940054,
              48.47976152975404
            ],
            [
              135.0708116788648,
              48.47976029130409
            ],
            [
              135.07080448589232,
              48.479751152424754
            ]
          ],
          [
            [
              135.07080448589232,
              48.479751152424754
            ],
            [
              135.07080420576918,
              48.47975079652018
            ],
            [
              135.07080448589232,
              48.479751152424754
            ]
          ]
        ],
        "type": "MultiLineString"
      },
      "properties": {
        "name": "\u0440\u0430\u0437\u0432\u043e\u0440\u043e\u0442",
        "\u0442\u0438\u043f_\u043c\u0430\u043d\u0435\u0432\u0440\u0430": "\u0440\u0430\u0437\u0432\u043e\u0440\u043e\u0442",
        "\u043f\u0440\u0438\u043e\u0440\u0438\u0442\u0435\u0442_\u0434\u0432\u0438\u0436\u0435\u043d\u0438\u044f": "False",
        "_qgis_class_val": "false",
        "_qgis_style": {
          "color": "#f19328",
          "fillColor": "#3388ff",
          "weight": 1.7388,
          "opacity": 1.0,
          "fillOpacity": 0.0,
          "radius": 6,
          "dashArray": null
        }
      }
    },
    {
      "type": "Feature",
      "geometry": {
        "coordinates": [
          [
            [
              135.07078693997005,
              48.47977848067828
            ],
            [
              135.07082849333005,
              48.47978454427665
            ],
            [
              135.07084795898675,
              48.47979752134094
            ]
          ]
        ],
        "type": "MultiLineString"
      },
      "properties": {
        "name": "\u0440\u0430\u0437\u0432\u043e\u0440\u043e\u0442",
        "\u0442\u0438\u043f_\u043c\u0430\u043d\u0435\u0432\u0440\u0430": "\u0440\u0430\u0437\u0432\u043e\u0440\u043e\u0442",
        "\u043f\u0440\u0438\u043e\u0440\u0438\u0442\u0435\u0442_\u0434\u0432\u0438\u0436\u0435\u043d\u0438\u044f": "False",
        "_qgis_class_val": "false",
        "_qgis_style": {
          "color": "#f19328",
          "fillColor": "#3388ff",
          "weight": 1.7388,
          "opacity": 1.0,
          "fillOpacity": 0.0,
          "radius": 6,
          "dashArray": null
        }
      }
    },
    {
      "type": "Feature",
      "geometry": {
        "coordinates": [
          [
            [
              135.07026030452667,
              48.48023084850371
            ],
            [
              135.07026030452667,
              48.48023084850371
            ],
            [
              135.07026030452667,
              48.48023084850371
            ],
            [
              135.07026552012465,
              48.480160412266805
            ],
            [
              135.07033746205056,
              48.480152441260664
            ]
          ]
        ],
        "type": "MultiLineString"
      },
      "properties": {
        "name": "\u043f\u0435\u0440\u0435\u0441\u0442\u0440\u043e\u0435\u043d\u0438\u0435 \u0438\u0437 \u0437\u043e\u043d\u044b \u043f\u0430\u0440\u043a\u043e\u0432\u043a\u0438",
        "\u0442\u0438\u043f_\u043c\u0430\u043d\u0435\u0432\u0440\u0430": "\u043f\u0435\u0440\u0435\u0441\u0442\u0440\u043e\u0435\u043d\u0438\u0435  ",
        "\u043f\u0440\u0438\u043e\u0440\u0438\u0442\u0435\u0442_\u0434\u0432\u0438\u0436\u0435\u043d\u0438\u044f": "False",
        "_qgis_class_val": "false",
        "_qgis_style": {
          "color": "#f19328",
          "fillColor": "#3388ff",
          "weight": 1.7388,
          "opacity": 1.0,
          "fillOpacity": 0.0,
          "radius": 6,
          "dashArray": null
        }
      }
    },
    {
      "type": "Feature",
      "geometry": {
        "coordinates": [
          [
            [
              135.07102030278514,
              48.47971704874127
            ],
            [
              135.07151726364577,
              48.479369455632416
            ],
            [
              135.07155712015592,
              48.479393399177106
            ],
            [
              135.07160569527764,
              48.479356245396026
            ],
            [
              135.07150605400236,
              48.4792967992897
            ]
          ]
        ],
        "type": "MultiLineString"
      },
      "properties": {
        "name": "\u043f\u0435\u0440\u0435\u0441\u0442\u0440\u043e\u0435\u043d\u0438\u0435 \u0438\u0437 \u0437\u043e\u043d\u044b \u043f\u0430\u0440\u043a\u043e\u0432\u043a\u0438",
        "\u0442\u0438\u043f_\u043c\u0430\u043d\u0435\u0432\u0440\u0430": "\u043f\u0435\u0440\u0435\u0441\u0442\u0440\u043e\u0435\u043d\u0438\u0435  ",
        "\u043f\u0440\u0438\u043e\u0440\u0438\u0442\u0435\u0442_\u0434\u0432\u0438\u0436\u0435\u043d\u0438\u044f": "False",
        "_qgis_class_val": "false",
        "_qgis_style": {
          "color": "#f19328",
          "fillColor": "#3388ff",
          "weight": 1.7388,
          "opacity": 1.0,
          "fillOpacity": 0.0,
          "radius": 6,
          "dashArray": null
        }
      }
    }
  ]
}