{
  "type": "FeatureCollection",
  "crs": {
    "type": "name",
    "properties": {
      "name": "EPSG:4326"
    }
  },
  "features": [
    {
      "type": "Feature",
      "geometry": {
        "coordinates": [
          [
            [
              135.07146137223427,
              48.47947815177017
            ],
            [
              135.07145780704548,
              48.47947933343104
            ],
            [
              135.07126172166238,
              48.47936943885103
            ],
            [
              135.07130569232405,
              48.47934265447288
            ],
            [
              135.0714994009146,
              48.479453730772384
            ],
            [
              135.07146137223427,
              48.47947815177017
            ]
          ]
        ],
        "type": "Polygon"
      },
      "properties": {
        "\u0442\u0438\u043f": "\u043e\u0431\u044b\u0447\u043d\u0430\u044f \u0437\u0435\u0431\u0440\u0430",
        "_qgis_class_val": "default",
        "_qgis_style": {
          "color": "#000000",
          "fillColor": "#000000",
          "weight": 1.0,
          "opacity": 1.0,
          "fillOpacity": 0.0,
          "radius": 6,
          "dashArray": null
        }
      }
    },
    {
      "type": "Feature",
      "geometry": {
        "coordinates": [
          [
            [
              135.07064969758778,
              48.48006937266095
            ],
            [
              135.07071981296718,
              48.48001580462961
            ],
            [
              135.07051540881028,
              48.47989291304986
            ],
            [
              135.07037161286266,
              48.4799937471885
            ],
            [
              135.07034665654118,
              48.479976416335184
            ],
            [
              135.07040607635426,
              48.47992836257456
            ],
            [
              135.07041439512807,
              48.479921272671604
            ],
            [
              135.07039419239163,
              48.47991024393171
            ],
            [
              135.0705748286233,
              48.47978104994277
            ],
            [
              135.07059859654854,
              48.4797944420179
            ],
            [
              135.07063900202144,
              48.47977159671116
            ],
            [
              135.0706651467392,
              48.47978498878876
            ],
            [
              135.0705510606981,
              48.47986534118017
            ],
            [
              135.07075546485504,
              48.47999295942257
            ],
            [
              135.07082676863072,
              48.47994490567763
            ],
            [
              135.07087786966994,
              48.47997326527031
            ],
            [
              135.07069366824945,
              48.48009930771264
            ],
            [
              135.07065088598404,
              48.48007409924924
            ],
            [
              135.07064969758778,
              48.48006937266095
            ]
          ]
        ],
        "type": "Polygon"
      },
      "properties": {
        "\u0442\u0438\u043f": "\u043d\u0430\u0434\u0437\u0435\u043c\u043d\u044b\u0439",
        "_qgis_class_val": "default",
        "_qgis_style": {
          "color": "#000000",
          "fillColor": "#000000",
          "weight": 1.0,
          "opacity": 1.0,
          "fillOpacity": 0.0,
          "radius": 6,
          "dashArray": null
        }
      }
    }
  ]
}