{
  "type": "FeatureCollection",
  "crs": {
    "type": "name",
    "properties": {
      "name": "EPSG:4326"
    }
  },
  "features": [
    {
      "type": "Feature",
      "geometry": {
        "coordinates": [
          [
            [
              [
                135.07150979938163,
                48.47945215522374
              ],
              [
                135.0715106906789,
                48.4794468377467
              ],
              [
                135.07173374988565,
                48.479294193360765
              ],
              [
                135.07155918304196,
                48.479192716833396
              ],
              [
                135.07149710185675,
                48.479156930376796
              ],
              [
                135.07130153293693,
                48.47929716038635
              ],
              [
                135.07132530086218,
                48.47932945922254
              ],
              [
                135.07130988524136,
                48.47933962939063
              ],
              [
                135.07116694706042,
                48.47941316037916
              ],
              [
                135.0710700927651,
                48.479433248636184
              ],
              [
                135.07102255691464,
                48.47943758139646
              ],
              [
                135.07097086167735,
                48.4794367936219
              ],
              [
                135.070901340496,
                48.47942812810082
              ],
              [
                135.0708722247876,
                48.47941591759137
              ],
              [
                135.0708319865049,
                48.47941202650667
              ],
              [
                135.0701437514805,
                48.479106114597066
              ],
              [
                135.07000956659903,
                48.47922989653555
              ],
              [
                135.07056027076902,
                48.47947165263482
              ],
              [
                135.0706452411017,
                48.4795417644753
              ],
              [
                135.07070168992414,
                48.47963629714056
              ],
              [
                135.0706993131316,
                48.47975446272438
              ],
              [
                135.07067911039516,
                48.47979148788399
              ],
              [
                135.07056205336343,
                48.479870264729456
              ],
              [
                135.07050679293727,
                48.479911228640745
              ],
              [
                135.07032972189432,
                48.480034120176136
              ],
              [
                135.0702596065149,
                48.480119198756995
              ],
              [
                135.07023414869215,
                48.48023262875904
              ],
              [
                135.0705508211202,
                48.480211575301425
              ],
              [
                135.07055908237268,
                48.48014834601579
              ],
              [
                135.07061018341187,
                48.48007764419021
              ],
              [
                135.07070584931097,
                48.48001344133283
              ],
              [
                135.0708857554339,
                48.47988270096921
              ],
              [
                135.07089777530712,
                48.479880702652295
              ],
              [
                135.07150979938163,
                48.47945215522374
              ]
            ],
            [
              [
                135.07049995965895,
                48.479339503368614
              ],
              [
                135.07065207438035,
                48.479412766491656
              ],
              [
                135.07074417509062,
                48.47946948625615
              ],
              [
                135.07076556622332,
                48.47949469502003
              ],
              [
                135.0708136962719,
                48.47954156753206
              ],
              [
                135.07081488466815,
                48.479556929102216
              ],
              [
                135.0707226174437,
                48.47947516400536
              ],
              [
                135.0703285071652,
                48.47928858212138
              ],
              [
                135.07025856422285,
                48.479247820483074
              ],
              [
                135.07019097663104,
                48.479204005700986
              ],
              [
                135.07049995965895,
                48.479339503368614
              ]
            ]
          ]
        ],
        "type": "MultiPolygon"
      },
      "properties": {
        "name": "2",
        "_qgis_class_val": "default",
        "_qgis_style": {
          "color": "#42963f",
          "fillColor": "#000000",
          "weight": 1.0,
          "opacity": 0.5,
          "fillOpacity": 0.0,
          "radius": 6,
          "dashArray": null
        }
      }
    }
  ]
}