{
  "type": "FeatureCollection",
  "crs": {
    "type": "name",
    "properties": {
      "name": "EPSG:4326"
    }
  },
  "features": [
    {
      "type": "Feature",
      "geometry": {
        "coordinates": [
          [
            [
              135.07019097663104,
              48.479204005700986
            ],
            [
              135.07025856422285,
              48.479247820483074
            ],
            [
              135.0703285071652,
              48.47928858212138
            ],
            [
              135.0707226174437,
              48.47947516400536
            ],
            [
              135.07081488466815,
              48.479556929102216
            ],
            [
              135.0708136962719,
              48.47954156753206
            ],
            [
              135.07076556622332,
              48.47949469502003
            ],
            [
              135.07074417509062,
              48.47946948625615
            ],
            [
              135.07065207438035,
              48.479412766491656
            ],
            [
              135.07049995965895,
              48.479339503368614
            ],
            [
              135.07019097663104,
              48.479204005700986
            ]
          ]
        ],
        "type": "Polygon"
      },
      "properties": {
        "type": "1",
        "_qgis_class_val": "default",
        "_qgis_style": {
          "color": "#000000",
          "fillColor": "#000000",
          "weight": 1.0,
          "opacity": 1.0,
          "fillOpacity": 0.0,
          "radius": 6,
          "dashArray": null
        }
      }
    }
  ]
}